0 NOAA 11
1 19531U 88089A   13282.35289092  .00000042  00000-0  43877-4 0  5429
2 19531 098.7044 002.6572 0010166 296.3379 063.6750 14.15030576292268
0 NOAA 11
1 19531U 88089A   13282.35289092  .00000042  00000-0  43877-4 0  5430
2 19531 098.7044 002.6572 0010166 296.3379 063.6750 14.15030576292268
0 NOAA 11
1 19531U 88089A   13283.34282334  .00000056  00000-0  50928-4 0  5443
2 19531 098.7044 003.6230 0010119 293.2373 066.7735 14.15030819292401
0 NOAA 11
1 19531U 88089A   13284.19133711  .00000040  00000-0  42822-4 0  5459
2 19531 098.7044 004.4508 0010120 290.5298 069.4790 14.15031122292528
0 NOAA 11
1 19531U 88089A   13284.19133711  .00000040  00000-0  42822-4 0  5460
2 19531 098.7044 004.4508 0010120 290.5298 069.4790 14.15031122292528
0 NOAA 11
1 19531U 88089A   13285.32268898 -.00000015  00000-0  14567-4 0  5470
2 19531 098.7043 005.5546 0010131 286.8984 073.1078 14.15031577292685
0 NOAA 11
1 19531U 88089A   13285.32268898 -.00000015  00000-0  14567-4 0  5481
2 19531 098.7043 005.5546 0010131 286.8984 073.1078 14.15031577292685
0 NOAA 11
1 19531U 88089A   13286.31262155 -.00000021  00000-0  11293-4 0  5492
2 19531 098.7043 006.5204 0010136 283.8035 076.2011 14.15031785292824
0 NOAA 11
1 19531U 88089A   13287.30255356  .00000016  00000-0  30465-4 0  5504
2 19531 098.7042 007.4862 0010154 280.7073 079.2957 14.15031707292962
0 NOAA 11
1 19531U 88089A   13288.43390401  .00000107  00000-0  77657-4 0  5516
2 19531 098.7041 008.5900 0010164 277.2201 082.7817 14.15031560293121
0 NOAA 11
1 19531U 88089A   13288.43390401  .00000107  00000-0  77657-4 0  5527
2 19531 098.7041 008.5900 0010164 277.2201 082.7817 14.15031560293121
0 NOAA 11
1 19531U 88089A   13289.35312644  .00000108  00000-0  78164-4 0  5538
2 19531 098.7039 009.4869 0010181 274.3049 085.6961 14.15031457293250
0 NOAA 11
1 19531U 88089A   13291.33299108  .00000081  00000-0  63949-4 0  5555
2 19531 098.7035 011.4186 0010242 268.0936 091.9065 14.15032309293537
0 NOAA 11
1 19531U 88089A   13292.32292365  .00000037  00000-0  41455-4 0  5563
2 19531 098.7033 012.3844 0010249 264.9437 095.0567 14.15033004293674
0 NOAA 11
1 19531U 88089A   13293.31285590  .00000010  00000-0  27460-4 0  5577
2 19531 098.7033 013.3501 0010261 261.8433 098.1577 14.15033455293812
0 NOAA 11
1 19531U 88089A   13294.30278748  .00000014  00000-0  29326-4 0  5582
2 19531 098.7032 014.3157 0010295 258.7884 101.2132 14.15033536293959
0 NOAA 11
1 19531U 88089A   13295.29271865  .00000040  00000-0  42665-4 0  5595
2 19531 098.7033 015.2815 0010302 255.6355 104.3675 14.15033249294092
